[{"OBJECT_NAME":"FENGYUN 2H","OBJECT_ID":"2018-050A","EPOCH":"2023-09-23T14:01:43.608000","MEAN_MOTION":1.0026929,"ECCENTRICITY":0.0003438,"INCLINATION":2.3241,"RA_OF_ASC_NODE":89.6262,"ARG_OF_PERICENTER":93.8738,"MEAN_ANOMALY":108.2349,"EPHEMERIS_TYPE":0,"CLASSIFICATION_TYPE":"U","NORAD_CAT_ID":43491,"ELEMENT_SET_NO":999,"REV_AT_EPOCH":1943,"BSTAR":0,"MEAN_MOTION_DOT":-1.3e-6,"MEAN_MOTION_DDOT":0},{"OBJECT_NAME":"BEIDOU-2 IGSO-7","OBJECT_ID":"2018-057A","EPOCH":"2023-09-23T09:49:22.831392","MEAN_MOTION":1.00277644,"ECCENTRICITY":0.0064038,"INCLINATION":55.1185,"RA_OF_ASC_NODE":171.6927,"ARG_OF_PERICENTER":230.6581,"MEAN_ANOMALY":220.7867,"EPHEMERIS_TYPE":0,"CLASSIFICATION_TYPE":"U","NORAD_CAT_ID":43539,"ELEMENT_SET_NO":999,"REV_AT_EPOCH":1914,"BSTAR":0,"MEAN_MOTION_DOT":-1.55e-6,"MEAN_MOTION_DDOT":0},{"OBJECT_NAME":"TELSTAR 19V","OBJECT_ID":"2018-059A","EPOCH":"2023-09-23T10:30:38.080800","MEAN_MOTION":1.00270019,"ECCENTRICITY":0.0002911,"INCLINATION":0.0199,"RA_OF_ASC_NODE":188.3756,"ARG_OF_PERICENTER":324.3695,"MEAN_ANOMALY":303.9504,"EPHEMERIS_TYPE":0,"CLASSIFICATION_TYPE":"U","NORAD_CAT_ID":43562,"ELEMENT_SET_NO":999,"REV_AT_EPOCH":1913,"BSTAR":0,"MEAN_MOTION_DOT":-2.82e-6,"MEAN_MOTION_DDOT":0},{"OBJECT_NAME":"TELKOM 4 (MERAH PUTIH)","OBJECT_ID":"2018-064A","EPOCH":"2023-09-24T01:39:44.019936","MEAN_MOTION":1.00269561,"ECCENTRICITY":0.0001768,"INCLINATION":0.024,"RA_OF_ASC_NODE":168.6733,"ARG_OF_PERICENTER":11.2217,"MEAN_ANOMALY":315.6907,"EPHEMERIS_TYPE":0,"CLASSIFICATION_TYPE":"U","NORAD_CAT_ID":43587,"ELEMENT_SET_NO":999,"REV_AT_EPOCH":1886,"BSTAR":0,"MEAN_MOTION_DOT":-3.49e-6,"MEAN_MOTION_DDOT":0},{"OBJECT_NAME":"TELSTAR 18V (APSTAR 5C)","OBJECT_ID":"2018-069A","EPOCH":"2023-09-23T17:36:42.402240","MEAN_MOTION":1.0026798,"ECCENTRICITY":0.000214,"INCLINATION":0.023,"RA_OF_ASC_NODE":165.3637,"ARG_OF_PERICENTER":4.8139,"MEAN_ANOMALY":234.3124,"EPHEMERIS_TYPE":0,"CLASSIFICATION_TYPE":"U","NORAD_CAT_ID":43611,"ELEMENT_SET_NO":999,"REV_AT_EPOCH":1861,"BSTAR":0,"MEAN_MOTION_DOT":-2.98e-6,"MEAN_MOTION_DDOT":0},{"OBJECT_NAME":"AZERSPACE 2 (IS-38)","OBJECT_ID":"2018-074A","EPOCH":"2023-09-24T03:04:56.770176","MEAN_MOTION":1.00270636,"ECCENTRICITY":0.0001283,"INCLINATION":0.0239,"RA_OF_ASC_NODE":164.3521,"ARG_OF_PERICENTER":18.9779,"MEAN_ANOMALY":270.7338,"EPHEMERIS_TYPE":0,"CLASSIFICATION_TYPE":"U","NORAD_CAT_ID":43632,"ELEMENT_SET_NO":999,"REV_AT_EPOCH":1844,"BSTAR":0,"MEAN_MOTION_DOT":1.31e-6,"MEAN_MOTION_DDOT":0},{"OBJECT_NAME":"HORIZONS-3E","OBJECT_ID":"2018-074B","EPOCH":"2023-09-24T05:01:53.389344","MEAN_MOTION":1.00270908,"ECCENTRICITY":0.0001749,"INCLINATION":0.0185,"RA_OF_ASC_NODE":164.3097,"ARG_OF_PERICENTER":120.4125,"MEAN_ANOMALY":322.54,"EPHEMERIS_TYPE":0,"CLASSIFICATION_TYPE":"U","NORAD_CAT_ID":43633,"ELEMENT_SET_NO":999,"REV_AT_EPOCH":1832,"BSTAR":0,"MEAN_MOTION_DOT":-3.7e-7,"MEAN_MOTION_DDOT":0},{"OBJECT_NAME":"AEHF-4 (USA 288)","OBJECT_ID":"2018-079A","EPOCH":"2023-09-23T10:42:02.366208","MEAN_MOTION":1.00265149,"ECCENTRICITY":0.0003622,"INCLINATION":1.9711,"RA_OF_ASC_NODE":324.2589,"ARG_OF_PERICENTER":205.5229,"MEAN_ANOMALY":285.2626,"EPHEMERIS_TYPE":0,"CLASSIFICATION_TYPE":"U","NORAD_CAT_ID":43651,"ELEMENT_SET_NO":999,"REV_AT_EPOCH":1829,"BSTAR":0,"MEAN_MOTION_DOT":-2.77e-6,"MEAN_MOTION_DDOT":0},{"OBJECT_NAME":"BEIDOU-3 G1","OBJECT_ID":"2018-085A","EPOCH":"2023-09-23T22:22:36.566688","MEAN_MOTION":1.00271633,"ECCENTRICITY":0.0002948,"INCLINATION":1.5549,"RA_OF_ASC_NODE":123.0638,"ARG_OF_PERICENTER":355.1623,"MEAN_ANOMALY":0.0479,"EPHEMERIS_TYPE":0,"CLASSIFICATION_TYPE":"U","NORAD_CAT_ID":43683,"ELEMENT_SET_NO":999,"REV_AT_EPOCH":1805,"BSTAR":0,"MEAN_MOTION_DOT":-2.82e-6,"MEAN_MOTION_DDOT":0},{"OBJECT_NAME":"GSAT-29","OBJECT_ID":"2018-089A","EPOCH":"2023-09-23T17:11:42.628704","MEAN_MOTION":1.00267512,"ECCENTRICITY":0.0001746,"INCLINATION":0.0165,"RA_OF_ASC_NODE":109.0081,"ARG_OF_PERICENTER":83.687,"MEAN_ANOMALY":122.6414,"EPHEMERIS_TYPE":0,"CLASSIFICATION_TYPE":"U","NORAD_CAT_ID":43698,"ELEMENT_SET_NO":999,"REV_AT_EPOCH":1781,"BSTAR":0,"MEAN_MOTION_DOT":8.1e-7,"MEAN_MOTION_DDOT":0},{"OBJECT_NAME":"ES'HAIL 2","OBJECT_ID":"2018-090A","EPOCH":"2023-09-24T01:49:12.711648","MEAN_MOTION":1.00271101,"ECCENTRICITY":0.0001286,"INCLINATION":0.0094,"RA_OF_ASC_NODE":229.0725,"ARG_OF_PERICENTER":295.9925,"MEAN_ANOMALY":250.6924,"EPHEMERIS_TYPE":0,"CLASSIFICATION_TYPE":"U","NORAD_CAT_ID":43700,"ELEMENT_SET_NO":999,"REV_AT_EPOCH":1792,"BSTAR":0,"MEAN_MOTION_DOT":1.39e-6,"MEAN_MOTION_DDOT":0},{"OBJECT_NAME":"GEO-KOMPSAT-2A","OBJECT_ID":"2018-100A","EPOCH":"2023-09-24T00:02:21.951744","MEAN_MOTION":1.00271746,"ECCENTRICITY":0.0001625,"INCLINATION":0.0461,"RA_OF_ASC_NODE":17.7622,"ARG_OF_PERICENTER":106.0129,"MEAN_ANOMALY":7.681,"EPHEMERIS_TYPE":0,"CLASSIFICATION_TYPE":"U","NORAD_CAT_ID":43823,"ELEMENT_SET_NO":999,"REV_AT_EPOCH":1766,"BSTAR":0,"MEAN_MOTION_DOT":-3.49e-6,"MEAN_MOTION_DDOT":0},{"OBJECT_NAME":"GSAT-11","OBJECT_ID":"2018-100B","EPOCH":"2023-09-23T13:31:42.621600","MEAN_MOTION":1.00270569,"ECCENTRICITY":0.0005668,"INCLINATION":0.0526,"RA_OF_ASC_NODE":273.1091,"ARG_OF_PERICENTER":213.9376,"MEAN_ANOMALY":152.0393,"EPHEMERIS_TYPE":0,"CLASSIFICATION_TYPE":"U","NORAD_CAT_ID":43824,"ELEMENT_SET_NO":999,"REV_AT_EPOCH":1747,"BSTAR":0,"MEAN_MOTION_DOT":-8.0e-7,"MEAN_MOTION_DDOT":0},{"OBJECT_NAME":"GSAT-7A","OBJECT_ID":"2018-105A","EPOCH":"2023-09-23T16:52:42.843360","MEAN_MOTION":1.00269696,"ECCENTRICITY":0.0001965,"INCLINATION":0.0261,"RA_OF_ASC_NODE":245.253,"ARG_OF_PERICENTER":288.7948,"MEAN_ANOMALY":144.2169,"EPHEMERIS_TYPE":0,"CLASSIFICATION_TYPE":"U","NORAD_CAT_ID":43864,"ELEMENT_SET_NO":999,"REV_AT_EPOCH":1744,"BSTAR":0,"MEAN_MOTION_DOT":2.3e-7,"MEAN_MOTION_DDOT":0},{"OBJECT_NAME":"COSMOS 2533","OBJECT_ID":"2018-107A","EPOCH":"2023-09-24T01:20:42.612864","MEAN_MOTION":1.00272971,"ECCENTRICITY":5.19e-5,"INCLINATION":0.0164,"RA_OF_ASC_NODE":125.7858,"ARG_OF_PERICENTER":348.9418,"MEAN_ANOMALY":338.0867,"EPHEMERIS_TYPE":0,"CLASSIFICATION_TYPE":"U","NORAD_CAT_ID":43867,"ELEMENT_SET_NO":999,"REV_AT_EPOCH":1742,"BSTAR":0,"MEAN_MOTION_DOT":-4.4e-7,"MEAN_MOTION_DDOT":0},{"OBJECT_NAME":"TJS-3","OBJECT_ID":"2018-110A","EPOCH":"2023-09-23T19:53:43.061568","MEAN_MOTION":1.00271954,"ECCENTRICITY":0.0005168,"INCLINATION":0.054,"RA_OF_ASC_NODE":296.1563,"ARG_OF_PERICENTER":254.9935,"MEAN_ANOMALY":282.6853,"EPHEMERIS_TYPE":0,"CLASSIFICATION_TYPE":"U","NORAD_CAT_ID":43874,"ELEMENT_SET_NO":999,"REV_AT_EPOCH":1748,"BSTAR":0,"MEAN_MOTION_DOT":-2.0e-8,"MEAN_MOTION_DDOT":0},{"OBJECT_NAME":"CHINASAT 2D (ZX 2D)","OBJECT_ID":"2019-001A","EPOCH":"2023-09-24T00:02:52.026720","MEAN_MOTION":1.0027176,"ECCENTRICITY":0.0001377,"INCLINATION":0.042,"RA_OF_ASC_NODE":348.7,"ARG_OF_PERICENTER":272.3099,"MEAN_ANOMALY":232.299,"EPHEMERIS_TYPE":0,"CLASSIFICATION_TYPE":"U","NORAD_CAT_ID":43920,"ELEMENT_SET_NO":999,"REV_AT_EPOCH":1735,"BSTAR":0,"MEAN_MOTION_DOT":-3.42e-6,"MEAN_MOTION_DDOT":0}]