FENGYUN 2H              
1 43491U 18050A   23266.58453250 -.00000130  00000+0  00000+0 0  9999
2 43491   2.3241  89.6262 0003438  93.8738 108.2349  1.00269290 19437
BEIDOU-2 IGSO-7         
1 43539U 18057A   23266.40929203 -.00000155  00000+0  00000+0 0  9993
2 43539  55.1185 171.6927 0064038 230.6581 220.7867  1.00277644 19148
TELSTAR 19V             
1 43562U 18059A   23266.43794075 -.00000282  00000+0  00000+0 0  9992
2 43562   0.0199 188.3756 0002911 324.3695 303.9504  1.00270019 19132
TELKOM 4 (MERAH PUTIH)  
1 43587U 18064A   23267.06925949 -.00000349  00000+0  00000+0 0  9995
2 43587   0.0240 168.6733 0001768  11.2217 315.6907  1.00269561 18869
TELSTAR 18V (APSTAR 5C) 
1 43611U 18069A   23266.73382410 -.00000298  00000+0  00000+0 0  9994
2 43611   0.0230 165.3637 0002140   4.8139 234.3124  1.00267980 18613
AZERSPACE 2 (IS-38)     
1 43632U 18074A   23267.12843484  .00000131  00000+0  00000+0 0  9995
2 43632   0.0239 164.3521 0001283  18.9779 270.7338  1.00270636 18443
HORIZONS-3E             
1 43633U 18074B   23267.20964571 -.00000037  00000+0  00000+0 0  9992
2 43633   0.0185 164.3097 0001749 120.4125 322.5400  1.00270908 18328
AEHF-4 (USA 288)        
1 43651U 18079A   23266.44586072 -.00000277  00000+0  00000+0 0  9994
2 43651   1.9711 324.2589 0003622 205.5229 285.2626  1.00265149 18290
BEIDOU-3 G1             
1 43683U 18085A   23266.93236767 -.00000282  00000+0  00000+0 0  9999
2 43683   1.5549 123.0638 0002948 355.1623   0.0479  1.00271633 18058
GSAT-29                 
1 43698U 18089A   23266.71646561  .00000081  00000+0  00000+0 0  9998
2 43698   0.0165 109.0081 0001746  83.6870 122.6414  1.00267512 17814
ES'HAIL 2               
1 43700U 18090A   23267.07584157  .00000139  00000+0  00000+0 0  9990
2 43700   0.0094 229.0725 0001286 295.9925 250.6924  1.00271101 17924
GEO-KOMPSAT-2A          
1 43823U 18100A   23267.00164296 -.00000349  00000+0  00000+0 0  9993
2 43823   0.0461  17.7622 0001625 106.0129   7.6810  1.00271746 17661
GSAT-11                 
1 43824U 18100B   23266.56368775 -.00000080  00000+0  00000+0 0  9994
2 43824   0.0526 273.1091 0005668 213.9376 152.0393  1.00270569 17477
GSAT-7A                 
1 43864U 18105A   23266.70327365  .00000023  00000+0  00000+0 0  9995
2 43864   0.0261 245.2530 0001965 288.7948 144.2169  1.00269696 17446
COSMOS 2533             
1 43867U 18107A   23267.05604876 -.00000044  00000+0  00000+0 0  9998
2 43867   0.0164 125.7858 0000519 348.9418 338.0867  1.00272971 17427
TJS-3                   
1 43874U 18110A   23266.82897062 -.00000002  00000+0  00000+0 0  9999
2 43874   0.0540 296.1563 0005168 254.9935 282.6853  1.00271954 17489
CHINASAT 2D (ZX 2D)     
1 43920U 19001A   23267.00199105 -.00000342  00000+0  00000+0 0  9992
2 43920   0.0420 348.7000 0001377 272.3099 232.2990  1.00271760 17355
